[{"OBJECT_NAME":"STARLINK-2757","OBJECT_ID":"2021-041BD","EPOCH":"2026-03-09T12:11:51.343296","MEAN_MOTION":15.06381389,"ECCENTRICITY":0.00014284,"INCLINATION":53.0535,"RA_OF_ASC_NODE":142.4329,"ARG_OF_PERICENTER":86.9134,"MEAN_ANOMALY":273.2018,"EPHEMERIS_TYPE":0,"CLASSIFICATION_TYPE":"U","NORAD_CAT_ID":48604,"ELEMENT_SET_NO":999,"REV_AT_EPOCH":26630,"BSTAR":0.00016192446,"MEAN_MOTION_DOT":2.13e-5,"MEAN_MOTION_DDOT":0},{"OBJECT_NAME":"SL-3 R\/B","OBJECT_ID":"1982-039B","EPOCH":"2026-03-09T22:07:28.779168","MEAN_MOTION":15.10083319,"ECCENTRICITY":0.00297187,"INCLINATION":81.1583,"RA_OF_ASC_NODE":215.6942,"ARG_OF_PERICENTER":323.7089,"MEAN_ANOMALY":36.212,"EPHEMERIS_TYPE":0,"CLASSIFICATION_TYPE":"U","NORAD_CAT_ID":13154,"ELEMENT_SET_NO":999,"REV_AT_EPOCH":38167,"BSTAR":0.00020843464,"MEAN_MOTION_DOT":3.451e-5,"MEAN_MOTION_DDOT":0}]
